NORAD_CAT_ID,OBJECT_NAME,OBJECT_TYPE,EPOCH,MEAN_MOTION,ECCENTRICITY,INCLINATION,RA_OF_ASC_NODE,ARG_OF_PERICENTER,MEAN_ANOMALY,BSTAR,MEAN_MOTION_DOT,MEAN_MOTION_DDOT,TLE_LINE0,TLE_LINE1,TLE_LINE2,SEMIMAJOR_AXIS,PERIOD,APOGEE,PERIGEE,DECAYED
53640.0,STARLINK-4597,PAYLOAD,2023-05-14 11:45:12,15.08836442,0.0001109,53.216,168.6169,90.5765,269.5354,5.7984e-05,6.35e-06,0.0,0 STARLINK-4597,1 53640U 22104BE  23134.48972622  .00000635  00000-0  57984-4 0  9991,2 53640  53.2160 168.6169 0001109  90.5765 269.5354 15.08836442 40703,6917.891,95.438,540.523,538.989,0.0
53640.0,STARLINK-4597,PAYLOAD,2023-05-14 19:42:08,15.08837017,0.0001136,53.216,167.1298,87.3518,272.7604,5.064e-05,5.18e-06,0.0,0 STARLINK-4597,1 53640U 22104BE  23134.82092690  .00000518  00000-0  50640-4 0  9999,2 53640  53.2160 167.1298 0001136  87.3518 272.7604 15.08837017 39734,6917.89,95.438,540.54,538.969,0.0
53640.0,STARLINK-4597,PAYLOAD,2023-05-15 08:25:12,15.08844198,0.0001109,53.216,164.7508,86.3431,273.7687,4.3222e-05,4e-06,0.0,0 STARLINK-4597,1 53640U 22104BE  23135.35084339  .00000400  00000-0  43222-4 0  9997,2 53640  53.2160 164.7508 0001109  86.3431 273.7687 15.08844198 40837,6917.868,95.437,540.5,538.965,0.0
53640.0,STARLINK-4597,PAYLOAD,2023-05-15 19:32:54,15.08844694,0.0001074,53.216,162.6692,99.4805,260.6309,4.7765e-05,4.73e-06,0.0,0 STARLINK-4597,1 53640U 22104BE  23135.81452180  .00000473  00000-0  47765-4 0  9997,2 53640  53.2160 162.6692 0001074  99.4805 260.6309 15.08844694 40904,6917.866,95.437,540.474,538.988,0.0
53640.0,STARLINK-4597,PAYLOAD,2023-05-16 05:05:13,15.08840392,0.0001226,53.2151,160.8849,86.9563,273.157,0.00017612,2.516e-05,0.0,0 STARLINK-4597,1 53640U 22104BE  23136.21196679  .00002516  00000-0  17612-3 0  9997,2 53640  53.2151 160.8849 0001226  86.9563 273.1570 15.08840392 39941,6917.879,95.438,540.592,538.896,0.0
53640.0,STARLINK-4597,PAYLOAD,2023-05-16 08:16:00,15.08841473,0.0001228,53.2153,160.2905,83.2175,276.8957,0.00016374,2.319e-05,0.0,0 STARLINK-4597,1 53640U 22104BE  23136.34444648  .00002319  00000-0  16374-3 0  9998,2 53640  53.2153 160.2905 0001228  83.2175 276.8957 15.08841473 40987,6917.876,95.437,540.59,538.891,0.0
53640.0,STARLINK-4597,PAYLOAD,2023-05-17 06:31:23,15.08841949,0.0001167,53.216,156.1267,89.2015,270.9111,8.368e-05,1.044e-05,0.0,0 STARLINK-4597,1 53640U 22104BE  23137.27180424  .00001044  00000-0  83680-4 0  9999,2 53640  53.2160 156.1267 0001167  89.2015 270.9111 15.08841949 40100,6917.874,95.437,540.547,538.932,0.0
53640.0,STARLINK-4597,PAYLOAD,2023-05-17 17:39:05,15.0884011,0.0001163,53.216,154.0457,86.729,273.3835,5.708e-05,6.21e-06,0.0,0 STARLINK-4597,1 53640U 22104BE  23137.73548565  .00000621  00000-0  57080-4 0  9999,2 53640  53.2160 154.0457 0001163  86.7290 273.3835 15.08840110 41190,6917.88,95.438,540.55,538.941,0.0
53640.0,STARLINK-4597,PAYLOAD,2023-05-18 01:36:01,15.08836859,0.0001153,53.2158,152.5583,91.7913,268.3211,2.3519e-05,8.6e-07,0.0,0 STARLINK-4597,1 53640U 22104BE  23138.06668830  .00000086  00000-0  23519-4 0  9999,2 53640  53.2158 152.5583 0001153  91.7913 268.3211 15.08836859 40227,6917.89,95.438,540.553,538.957,0.0
53640.0,STARLINK-4597,PAYLOAD,2023-05-18 11:08:20,15.08836031,0.0001149,53.2161,150.7752,88.7646,271.3477,1.0523e-05,-1.2e-06,0.0,0 STARLINK-4597,1 53640U 22104BE  23138.46412905 -.00000120  00000-0  10523-4 0  9994,2 53640  53.2161 150.7752 0001149  88.7646 271.3477 15.08836031 41303,6917.893,95.438,540.552,538.963,0.0
53640.0,STARLINK-4597,PAYLOAD,2023-05-19 06:12:58,15.08839914,0.000113,53.2163,147.2068,88.8432,271.2689,4.726e-05,4.64e-06,0.0,0 STARLINK-4597,1 53640U 22104BE  23139.25900646  .00000464  00000-0  47260-4 0  9994,2 53640  53.2163 147.2068 0001130  88.8432 271.2689 15.08839914 40407,6917.881,95.438,540.527,538.964,0.0
53640.0,STARLINK-4597,PAYLOAD,2023-05-19 17:20:40,15.08838074,0.0001134,53.2164,145.1255,88.5988,271.5134,5.1537e-05,5.32e-06,0.0,0 STARLINK-4597,1 53640U 22104BE  23139.72268793  .00000532  00000-0  51537-4 0  9994,2 53640  53.2164 145.1255 0001134  88.5988 271.5134 15.08838074 41494,6917.886,95.438,540.536,538.967,0.0
53640.0,STARLINK-4597,PAYLOAD,2023-05-20 07:39:08,15.08838185,0.0001143,53.2163,142.449,87.7336,272.3787,8.5243e-05,1.069e-05,0.0,0 STARLINK-4597,1 53640U 22104BE  23140.31884881  .00001069  00000-0  85243-4 0  9990,2 53640  53.2163 142.4490 0001143  87.7336 272.3787 15.08838185 40565,6917.886,95.438,540.542,538.96,0.0
53640.0,STARLINK-4597,PAYLOAD,2023-05-20 17:11:27,15.08842943,0.0001155,53.2163,140.6648,85.6499,274.4625,9.7763e-05,1.269e-05,0.0,0 STARLINK-4597,1 53640U 22104BE  23140.71628570  .00001269  00000-0  97763-4 0  9997,2 53640  53.2163 140.6648 0001155  85.6499 274.4625 15.08842943 41641,6917.871,95.437,540.535,538.937,0.0
53640.0,STARLINK-4597,PAYLOAD,2023-05-20 23:32:59,15.08846112,0.0001166,53.2163,139.4749,85.762,274.3506,9.5151e-05,1.227e-05,0.0,0 STARLINK-4597,1 53640U 22104BE  23140.98124334  .00001227  00000-0  95151-4 0  9998,2 53640  53.2163 139.4749 0001166  85.7620 274.3506 15.08846112 40668,6917.862,95.437,540.533,538.92,0.0
53640.0,STARLINK-4597,PAYLOAD,2023-05-21 07:29:54,15.08848975,0.0001172,53.2163,137.9881,85.8678,274.2448,0.00011581,1.556e-05,0.0,0 STARLINK-4597,1 53640U 22104BE  23141.31244042  .00001556  00000-0  11581-3 0  9994,2 53640  53.2163 137.9881 0001172  85.8678 274.2448 15.08848975 41731,6917.853,95.437,540.529,538.907,0.0
53640.0,STARLINK-4597,PAYLOAD,2023-05-21 17:02:14,15.08841855,0.0001176,53.2162,136.2046,84.5773,275.5353,6.0995e-05,6.83e-06,0.0,0 STARLINK-4597,1 53640U 22104BE  23141.70988571  .00000683  00000-0  60995-4 0  9993,2 53640  53.2162 136.2046 0001176  84.5773 275.5353 15.08841855 40773,6917.875,95.437,540.553,538.926,0.0
53640.0,STARLINK-4597,PAYLOAD,2023-05-22 08:56:05,15.08838473,0.0001218,53.2158,133.2314,85.9257,274.1875,2.2506e-05,7e-07,0.0,0 STARLINK-4597,1 53640U 22104BE  23142.37229022  .00000070  00000-0  22506-4 0  9992,2 53640  53.2158 133.2314 0001218  85.9257 274.1875 15.08838473 40879,6917.885,95.438,540.593,538.907,0.0
53640.0,STARLINK-4597,PAYLOAD,2023-05-22 16:53:01,15.08838464,0.0001219,53.2158,131.7446,85.5592,274.5539,9.9728e-06,-1.29e-06,0.0,0 STARLINK-4597,1 53640U 22104BE  23142.70349085 -.00000129  00000-0  99728-5 0  9998,2 53640  53.2158 131.7446 0001219  85.5592 274.5539 15.08838464 41947,6917.885,95.438,540.593,538.907,0.0
53640.0,STARLINK-4597,PAYLOAD,2023-05-23 02:25:20,15.08819287,0.0001141,53.2159,129.959,96.7277,263.3845,0.00033859,5.102e-05,0.0,0 STARLINK-4597,1 53640U 22104BE  23143.10093503  .00005102  00000-0  33859-3 0  9990,2 53640  53.2159 129.9590 0001141  96.7277 263.3845 15.08819287 40986,6917.944,95.439,540.598,539.019,0.0
53640.0,STARLINK-4597,PAYLOAD,2023-05-23 05:36:06,15.08842784,0.0001234,53.2161,129.3642,92.5894,267.5239,1.5048e-05,-4.8e-07,0.0,0 STARLINK-4597,1 53640U 22104BE  23143.23340743 -.00000048  00000-0  15048-4 0  9991,2 53640  53.2161 129.3642 0001234  92.5894 267.5239 15.08842784 41008,6917.872,95.437,540.591,538.883,0.0
53640.0,STARLINK-4597,PAYLOAD,2023-05-24 05:26:53,15.088403,0.0001179,53.2161,124.9032,94.1717,265.941,0.00013004,1.782e-05,0.0,0 STARLINK-4597,1 53640U 22104BE  23144.22700642  .00001782  00000-0  13004-3 0  9993,2 53640  53.2161 124.9032 0001179  94.1717 265.9410 15.08840300 42176,6917.879,95.438,540.56,538.929,0.0
53640.0,STARLINK-4597,PAYLOAD,2023-05-26 05:08:28,15.08836278,0.0001138,53.2165,115.982,90.3641,269.7481,-8.1209e-06,-4.17e-06,0.0,0 STARLINK-4597,1 53640U 22104BE  23146.21421592 -.00000417  00000-0 -81209-5 0  9998,2 53640  53.2165 115.9820 0001138  90.3641 269.7481 15.08836278 41453,6917.892,95.438,540.544,538.97,0.0
53640.0,STARLINK-4597,PAYLOAD,2023-05-27 06:34:38,15.08832774,0.0001165,53.2167,111.2273,103.4468,256.6654,1.4233e-05,-6.1e-07,0.0,0 STARLINK-4597,1 53640U 22104BE  23147.27406127 -.00000061  00000-0  14233-4 0  9998,2 53640  53.2167 111.2273 0001165 103.4468 256.6654 15.08832774 41611,6917.902,95.438,540.573,538.962,0.0
53640.0,STARLINK-4597,PAYLOAD,2023-05-27 14:31:34,15.08837216,0.0001081,53.2166,109.7379,90.2607,269.8509,6.4366e-05,7.37e-06,0.0,0 STARLINK-4597,1 53640U 22104BE  23147.60525811  .00000737  00000-0  64366-4 0  9998,2 53640  53.2166 109.7379 0001081  90.2607 269.8509 15.08837216 42683,6917.889,95.438,540.502,539.006,0.0
53640.0,STARLINK-4597,PAYLOAD,2023-05-28 01:39:15,15.088419,0.0001033,53.2165,107.6559,89.3552,270.7558,0.00011109,1.481e-05,0.0,0 STARLINK-4597,1 53640U 22104BE  23148.06893403  .00001481  00000-0  11109-3 0  9997,2 53640  53.2165 107.6559 0001033  89.3552 270.7558 15.08841900 41739,6917.875,95.437,540.454,539.025,0.0
53640.0,STARLINK-4597,PAYLOAD,2023-05-28 06:25:25,15.088445,0.0001088,53.2168,106.7649,90.3081,269.8036,0.00013184,1.811e-05,0.0,0 STARLINK-4597,1 53640U 22104BE  23148.26765223  .00001811  00000-0  13184-3 0  9999,2 53640  53.2168 106.7649 0001088  90.3081 269.8036 15.08844500 42786,6917.867,95.437,540.484,538.979,0.0
53640.0,STARLINK-4597,PAYLOAD,2023-05-28 20:43:53,15.08842195,0.0001039,53.2168,104.0903,93.0961,267.015,9.3793e-05,1.205e-05,0.0,0 STARLINK-4597,1 53640U 22104BE  23148.86381484  .00001205  00000-0  93793-4 0  9990,2 53640  53.2168 104.0903 0001039  93.0961 267.0150 15.08842195 42878,6917.874,95.437,540.457,539.02,0.0
53640.0,STARLINK-4597,PAYLOAD,2023-05-29 03:05:26,15.08842575,0.0001141,53.2169,102.8992,86.9731,273.1392,9.8275e-05,1.277e-05,0.0,0 STARLINK-4597,1 53640U 22104BE  23149.12877477  .00001277  00000-0  98275-4 0  9991,2 53640  53.2169 102.8992 0001141  86.9731 273.1392 15.08842575 41892,6917.873,95.437,540.527,538.948,0.0
53640.0,STARLINK-4597,PAYLOAD,2023-05-29 20:34:41,15.08837299,0.0001051,53.217,99.6292,89.863,270.2483,-2.4948e-05,-6.85e-06,0.0,0 STARLINK-4597,1 53640U 22104BE  23149.85742145 -.00000685  00000-0 -24948-4 0  9994,2 53640  53.2170  99.6292 0001051  89.8630 270.2483 15.08837299 43023,6917.889,95.438,540.481,539.027,0.0
